[{"OBJECT_NAME":"ONEWEB-0307","OBJECT_ID":"2021-083D","EPOCH":"2026-03-02T19:34:37.346592","MEAN_MOTION":13.13469441,"ECCENTRICITY":0.00017878,"INCLINATION":87.9031,"RA_OF_ASC_NODE":341.3944,"ARG_OF_PERICENTER":77.9501,"MEAN_ANOMALY":282.1828,"EPHEMERIS_TYPE":0,"CLASSIFICATION_TYPE":"U","NORAD_CAT_ID":49189,"ELEMENT_SET_NO":999,"REV_AT_EPOCH":21696,"BSTAR":-0.00031873403,"MEAN_MOTION_DOT":-1.04e-6,"MEAN_MOTION_DDOT":0},{"OBJECT_NAME":"ONEWEB-0320","OBJECT_ID":"2021-083E","EPOCH":"2026-03-02T18:35:55.298976","MEAN_MOTION":13.18120867,"ECCENTRICITY":0.00040288,"INCLINATION":87.9238,"RA_OF_ASC_NODE":356.5974,"ARG_OF_PERICENTER":80.6455,"MEAN_ANOMALY":279.5132,"EPHEMERIS_TYPE":0,"CLASSIFICATION_TYPE":"U","NORAD_CAT_ID":49190,"ELEMENT_SET_NO":999,"REV_AT_EPOCH":21595,"BSTAR":-0.002789903,"MEAN_MOTION_DOT":-1.078e-5,"MEAN_MOTION_DDOT":0},{"OBJECT_NAME":"ONEWEB-0321","OBJECT_ID":"2021-083F","EPOCH":"2026-03-03T03:23:38.089248","MEAN_MOTION":13.2077294,"ECCENTRICITY":0.0001776,"INCLINATION":87.9186,"RA_OF_ASC_NODE":295.6082,"ARG_OF_PERICENTER":93.0074,"MEAN_ANOMALY":267.1263,"EPHEMERIS_TYPE":0,"CLASSIFICATION_TYPE":"U","NORAD_CAT_ID":49191,"ELEMENT_SET_NO":999,"REV_AT_EPOCH":22283,"BSTAR":0.00021752,"MEAN_MOTION_DOT":1.01e-6,"MEAN_MOTION_DDOT":0},{"OBJECT_NAME":"ONEWEB-0322","OBJECT_ID":"2021-083G","EPOCH":"2026-03-02T19:28:31.311264","MEAN_MOTION":13.13469979,"ECCENTRICITY":0.00017128,"INCLINATION":87.9031,"RA_OF_ASC_NODE":341.4,"ARG_OF_PERICENTER":94.3636,"MEAN_ANOMALY":265.7688,"EPHEMERIS_TYPE":0,"CLASSIFICATION_TYPE":"U","NORAD_CAT_ID":49192,"ELEMENT_SET_NO":999,"REV_AT_EPOCH":21695,"BSTAR":-0.00024868911,"MEAN_MOTION_DOT":-7.8e-7,"MEAN_MOTION_DDOT":0},{"OBJECT_NAME":"ONEWEB-0324","OBJECT_ID":"2021-083H","EPOCH":"2026-03-02T19:59:15.494208","MEAN_MOTION":13.18685754,"ECCENTRICITY":0.0001982,"INCLINATION":87.925,"RA_OF_ASC_NODE":356.567,"ARG_OF_PERICENTER":78.1826,"MEAN_ANOMALY":281.9528,"EPHEMERIS_TYPE":0,"CLASSIFICATION_TYPE":"U","NORAD_CAT_ID":49193,"ELEMENT_SET_NO":999,"REV_AT_EPOCH":21598,"BSTAR":-2.6322e-5,"MEAN_MOTION_DOT":3.0e-8,"MEAN_MOTION_DDOT":0},{"OBJECT_NAME":"ONEWEB-0325","OBJECT_ID":"2021-083J","EPOCH":"2026-03-02T20:04:00.852672","MEAN_MOTION":13.18685817,"ECCENTRICITY":0.0001772,"INCLINATION":87.9242,"RA_OF_ASC_NODE":356.5839,"ARG_OF_PERICENTER":79.787,"MEAN_ANOMALY":280.3461,"EPHEMERIS_TYPE":0,"CLASSIFICATION_TYPE":"U","NORAD_CAT_ID":49194,"ELEMENT_SET_NO":999,"REV_AT_EPOCH":21599,"BSTAR":8.1735e-5,"MEAN_MOTION_DOT":4.5e-7,"MEAN_MOTION_DDOT":0},{"OBJECT_NAME":"ONEWEB-0326","OBJECT_ID":"2021-083K","EPOCH":"2026-03-02T20:25:34.711680","MEAN_MOTION":13.18686789,"ECCENTRICITY":0.0001684,"INCLINATION":87.9249,"RA_OF_ASC_NODE":356.5695,"ARG_OF_PERICENTER":70.5821,"MEAN_ANOMALY":289.5493,"EPHEMERIS_TYPE":0,"CLASSIFICATION_TYPE":"U","NORAD_CAT_ID":49195,"ELEMENT_SET_NO":999,"REV_AT_EPOCH":21598,"BSTAR":7.6126e-5,"MEAN_MOTION_DOT":4.3e-7,"MEAN_MOTION_DDOT":0},{"OBJECT_NAME":"ONEWEB-0327","OBJECT_ID":"2021-083L","EPOCH":"2026-03-02T18:35:55.704192","MEAN_MOTION":13.18685533,"ECCENTRICITY":0.0001561,"INCLINATION":87.924,"RA_OF_ASC_NODE":356.5977,"ARG_OF_PERICENTER":71.4158,"MEAN_ANOMALY":288.7144,"EPHEMERIS_TYPE":0,"CLASSIFICATION_TYPE":"U","NORAD_CAT_ID":49196,"ELEMENT_SET_NO":999,"REV_AT_EPOCH":21599,"BSTAR":-6.9837009e-5,"MEAN_MOTION_DOT":-1.5e-7,"MEAN_MOTION_DDOT":0},{"OBJECT_NAME":"ONEWEB-0328","OBJECT_ID":"2021-083M","EPOCH":"2026-03-02T19:13:53.808672","MEAN_MOTION":13.13469662,"ECCENTRICITY":0.00018989,"INCLINATION":87.9049,"RA_OF_ASC_NODE":341.3607,"ARG_OF_PERICENTER":76.6799,"MEAN_ANOMALY":283.4542,"EPHEMERIS_TYPE":0,"CLASSIFICATION_TYPE":"U","NORAD_CAT_ID":49197,"ELEMENT_SET_NO":999,"REV_AT_EPOCH":21693,"BSTAR":-0.0010287864,"MEAN_MOTION_DOT":-3.63e-6,"MEAN_MOTION_DDOT":0},{"OBJECT_NAME":"ONEWEB-0331","OBJECT_ID":"2021-083N","EPOCH":"2026-03-02T20:15:53.403840","MEAN_MOTION":13.18685386,"ECCENTRICITY":0.0001874,"INCLINATION":87.9249,"RA_OF_ASC_NODE":356.5642,"ARG_OF_PERICENTER":68.6377,"MEAN_ANOMALY":291.4955,"EPHEMERIS_TYPE":0,"CLASSIFICATION_TYPE":"U","NORAD_CAT_ID":49198,"ELEMENT_SET_NO":999,"REV_AT_EPOCH":21599,"BSTAR":4.0999e-5,"MEAN_MOTION_DOT":2.9e-7,"MEAN_MOTION_DDOT":0},{"OBJECT_NAME":"ONEWEB-0333","OBJECT_ID":"2021-083P","EPOCH":"2026-03-02T19:06:34.947648","MEAN_MOTION":13.13469066,"ECCENTRICITY":0.00017074,"INCLINATION":87.9032,"RA_OF_ASC_NODE":341.4014,"ARG_OF_PERICENTER":77.7492,"MEAN_ANOMALY":282.3829,"EPHEMERIS_TYPE":0,"CLASSIFICATION_TYPE":"U","NORAD_CAT_ID":49199,"ELEMENT_SET_NO":999,"REV_AT_EPOCH":21694,"BSTAR":-0.00090874271,"MEAN_MOTION_DOT":-3.19e-6,"MEAN_MOTION_DDOT":0},{"OBJECT_NAME":"ONEWEB-0334","OBJECT_ID":"2021-083Q","EPOCH":"2026-03-03T03:48:38.926368","MEAN_MOTION":13.20771713,"ECCENTRICITY":0.0001775,"INCLINATION":87.9173,"RA_OF_ASC_NODE":295.624,"ARG_OF_PERICENTER":116.2178,"MEAN_ANOMALY":243.9138,"EPHEMERIS_TYPE":0,"CLASSIFICATION_TYPE":"U","NORAD_CAT_ID":49200,"ELEMENT_SET_NO":999,"REV_AT_EPOCH":22279,"BSTAR":0.00020171,"MEAN_MOTION_DOT":9.5e-7,"MEAN_MOTION_DDOT":0},{"OBJECT_NAME":"ONEWEB-0335","OBJECT_ID":"2021-083R","EPOCH":"2026-03-02T17:09:34.032672","MEAN_MOTION":13.13468249,"ECCENTRICITY":0.00017847,"INCLINATION":87.9038,"RA_OF_ASC_NODE":341.4109,"ARG_OF_PERICENTER":72.2656,"MEAN_ANOMALY":287.8668,"EPHEMERIS_TYPE":0,"CLASSIFICATION_TYPE":"U","NORAD_CAT_ID":49201,"ELEMENT_SET_NO":999,"REV_AT_EPOCH":21694,"BSTAR":-0.00055516354,"MEAN_MOTION_DOT":-1.9e-6,"MEAN_MOTION_DDOT":0},{"OBJECT_NAME":"ONEWEB-0336","OBJECT_ID":"2021-083S","EPOCH":"2026-03-03T03:26:18.738816","MEAN_MOTION":13.1346808,"ECCENTRICITY":0.0001883,"INCLINATION":87.9036,"RA_OF_ASC_NODE":341.3225,"ARG_OF_PERICENTER":65.4625,"MEAN_ANOMALY":294.67,"EPHEMERIS_TYPE":0,"CLASSIFICATION_TYPE":"U","NORAD_CAT_ID":49202,"ELEMENT_SET_NO":999,"REV_AT_EPOCH":21699,"BSTAR":0.00077312,"MEAN_MOTION_DOT":2.95e-6,"MEAN_MOTION_DDOT":0},{"OBJECT_NAME":"ONEWEB-0337","OBJECT_ID":"2021-083T","EPOCH":"2026-03-03T03:40:45.150240","MEAN_MOTION":13.13468657,"ECCENTRICITY":0.000193,"INCLINATION":87.9033,"RA_OF_ASC_NODE":341.3305,"ARG_OF_PERICENTER":74.7729,"MEAN_ANOMALY":285.3613,"EPHEMERIS_TYPE":0,"CLASSIFICATION_TYPE":"U","NORAD_CAT_ID":49203,"ELEMENT_SET_NO":999,"REV_AT_EPOCH":21699,"BSTAR":0.00079621,"MEAN_MOTION_DOT":3.04e-6,"MEAN_MOTION_DDOT":0},{"OBJECT_NAME":"ONEWEB-0338","OBJECT_ID":"2021-083U","EPOCH":"2026-03-03T03:12:16.116768","MEAN_MOTION":13.20769693,"ECCENTRICITY":0.0001631,"INCLINATION":87.9174,"RA_OF_ASC_NODE":295.6334,"ARG_OF_PERICENTER":95.7098,"MEAN_ANOMALY":264.4221,"EPHEMERIS_TYPE":0,"CLASSIFICATION_TYPE":"U","NORAD_CAT_ID":49204,"ELEMENT_SET_NO":999,"REV_AT_EPOCH":22281,"BSTAR":0.00016697,"MEAN_MOTION_DOT":8.1e-7,"MEAN_MOTION_DDOT":0},{"OBJECT_NAME":"ONEWEB-0339","OBJECT_ID":"2021-083V","EPOCH":"2026-03-03T03:53:07.931040","MEAN_MOTION":13.13469168,"ECCENTRICITY":0.0001847,"INCLINATION":87.9044,"RA_OF_ASC_NODE":341.3159,"ARG_OF_PERICENTER":87.1782,"MEAN_ANOMALY":272.9559,"EPHEMERIS_TYPE":0,"CLASSIFICATION_TYPE":"U","NORAD_CAT_ID":49205,"ELEMENT_SET_NO":999,"REV_AT_EPOCH":21697,"BSTAR":0.00036396,"MEAN_MOTION_DOT":1.46e-6,"MEAN_MOTION_DDOT":0},{"OBJECT_NAME":"ONEWEB-0340","OBJECT_ID":"2021-083W","EPOCH":"2026-03-02T19:56:52.892736","MEAN_MOTION":13.18685699,"ECCENTRICITY":0.0001801,"INCLINATION":87.9251,"RA_OF_ASC_NODE":356.5724,"ARG_OF_PERICENTER":76.0349,"MEAN_ANOMALY":284.0983,"EPHEMERIS_TYPE":0,"CLASSIFICATION_TYPE":"U","NORAD_CAT_ID":49206,"ELEMENT_SET_NO":999,"REV_AT_EPOCH":21595,"BSTAR":1.2996e-5,"MEAN_MOTION_DOT":1.8e-7,"MEAN_MOTION_DDOT":0},{"OBJECT_NAME":"ONEWEB-0341","OBJECT_ID":"2021-083X","EPOCH":"2026-03-02T20:06:23.297760","MEAN_MOTION":13.18685796,"ECCENTRICITY":0.0002325,"INCLINATION":87.9247,"RA_OF_ASC_NODE":356.581,"ARG_OF_PERICENTER":76.9606,"MEAN_ANOMALY":283.1786,"EPHEMERIS_TYPE":0,"CLASSIFICATION_TYPE":"U","NORAD_CAT_ID":49207,"ELEMENT_SET_NO":999,"REV_AT_EPOCH":21597,"BSTAR":3.2636e-5,"MEAN_MOTION_DOT":2.6e-7,"MEAN_MOTION_DDOT":0},{"OBJECT_NAME":"ONEWEB-0342","OBJECT_ID":"2021-083Y","EPOCH":"2026-03-03T03:21:21.921120","MEAN_MOTION":13.20773108,"ECCENTRICITY":0.0001634,"INCLINATION":87.9185,"RA_OF_ASC_NODE":295.6097,"ARG_OF_PERICENTER":87.2183,"MEAN_ANOMALY":272.9137,"EPHEMERIS_TYPE":0,"CLASSIFICATION_TYPE":"U","NORAD_CAT_ID":49208,"ELEMENT_SET_NO":999,"REV_AT_EPOCH":22278,"BSTAR":0.00017663,"MEAN_MOTION_DOT":8.5e-7,"MEAN_MOTION_DDOT":0},{"OBJECT_NAME":"ONEWEB-0343","OBJECT_ID":"2021-083Z","EPOCH":"2026-03-02T20:18:15.282144","MEAN_MOTION":13.18686205,"ECCENTRICITY":0.000233,"INCLINATION":87.9248,"RA_OF_ASC_NODE":356.5733,"ARG_OF_PERICENTER":85.3796,"MEAN_ANOMALY":274.7603,"EPHEMERIS_TYPE":0,"CLASSIFICATION_TYPE":"U","NORAD_CAT_ID":49209,"ELEMENT_SET_NO":999,"REV_AT_EPOCH":21602,"BSTAR":0.00010655,"MEAN_MOTION_DOT":5.5e-7,"MEAN_MOTION_DDOT":0},{"OBJECT_NAME":"ONEWEB-0344","OBJECT_ID":"2021-083AA","EPOCH":"2026-03-03T03:45:49.230720","MEAN_MOTION":13.13469162,"ECCENTRICITY":0.0002132,"INCLINATION":87.9032,"RA_OF_ASC_NODE":341.3409,"ARG_OF_PERICENTER":74.662,"MEAN_ANOMALY":285.4744,"EPHEMERIS_TYPE":0,"CLASSIFICATION_TYPE":"U","NORAD_CAT_ID":49210,"ELEMENT_SET_NO":999,"REV_AT_EPOCH":21697,"BSTAR":0.00061172,"MEAN_MOTION_DOT":2.36e-6,"MEAN_MOTION_DDOT":0},{"OBJECT_NAME":"ONEWEB-0345","OBJECT_ID":"2021-083AB","EPOCH":"2026-03-03T03:33:37.083168","MEAN_MOTION":13.13469978,"ECCENTRICITY":0.0002124,"INCLINATION":87.9042,"RA_OF_ASC_NODE":341.3097,"ARG_OF_PERICENTER":76.4677,"MEAN_ANOMALY":283.6689,"EPHEMERIS_TYPE":0,"CLASSIFICATION_TYPE":"U","NORAD_CAT_ID":49211,"ELEMENT_SET_NO":999,"REV_AT_EPOCH":21698,"BSTAR":0.00047766,"MEAN_MOTION_DOT":1.87e-6,"MEAN_MOTION_DDOT":0},{"OBJECT_NAME":"ONEWEB-0346","OBJECT_ID":"2021-083AC","EPOCH":"2026-03-02T20:13:28.600032","MEAN_MOTION":13.18687703,"ECCENTRICITY":0.0001756,"INCLINATION":87.924,"RA_OF_ASC_NODE":356.5826,"ARG_OF_PERICENTER":56.9583,"MEAN_ANOMALY":303.1717,"EPHEMERIS_TYPE":0,"CLASSIFICATION_TYPE":"U","NORAD_CAT_ID":49212,"ELEMENT_SET_NO":999,"REV_AT_EPOCH":21596,"BSTAR":2.5121e-5,"MEAN_MOTION_DOT":2.3e-7,"MEAN_MOTION_DDOT":0}]
